BEIDOU-2 M4             
1 38251U 12018B   25333.90922646 -.00000047  00000+0  00000+0 0  9995
2 38251  55.8326 310.8191 0015689 276.2040  83.6171  1.86229439 92239
BEIDOU-2 M6             
1 38775U 12050B   25334.15714948 -.00000031  00000+0  00000+0 0  9997
2 38775  56.3677  69.4852 0010818 346.8684  13.1099  1.86230748 89602
BEIDOU-2 G6             
1 38953U 12059A   25333.88000978 -.00000154  00000+0  00000+0 0  9990
2 38953   3.9136  75.6286 0007215 292.5361 101.7162  1.00271616 47912
BEIDOU-3S M2S           
1 40748U 15037A   25334.11429677 -.00000050  00000+0  00000+0 0  9997
2 40748  55.0501 308.8973 0012511 266.8949  92.9598  1.86229048 70417
BEIDOU-3S M1S           
1 40749U 15037B   25330.05103794 -.00000040  00000+0  00000+0 0  9995
2 40749  55.0504 309.0266 0003268 354.4635   5.5327  1.86253920 70342
BEIDOU-3S IGSO-2S       
1 40938U 15053A   25331.73419618 -.00000147  00000+0  00000+0 0  9992
2 40938  49.5372 261.1858 0060974 189.0175 337.1684  1.00273439 37331
BEIDOU-2 IGSO-6         
1 41434U 16021A   25333.66755465 -.00000150  00000+0  00000+0 0  9991
2 41434  59.9454  40.0323 0059092 231.0312 130.2075  1.00257137 35487
BEIDOU-2 G7             
1 41586U 16037A   25334.20831207 -.00000332  00000+0  00000+0 0  9998
2 41586   1.7237  67.6451 0004586   6.9572 180.2097  1.00273584  4895
